NORAD_CAT_ID,OBJECT_NAME,OBJECT_TYPE,EPOCH,MEAN_MOTION,ECCENTRICITY,INCLINATION,RA_OF_ASC_NODE,ARG_OF_PERICENTER,MEAN_ANOMALY,BSTAR,MEAN_MOTION_DOT,MEAN_MOTION_DDOT,TLE_LINE0,TLE_LINE1,TLE_LINE2,SEMIMAJOR_AXIS,PERIOD,APOGEE,PERIGEE,DECAYED
49408.0,STARLINK-3151,PAYLOAD,2024-04-23 06:13:54,15.08829432,0.0001183,53.2168,66.1471,78.2392,281.8733,-0.00047261,-7.799e-05,0.0,0 STARLINK-3151,1 49408U 21104A   24114.25966362 -.00007799  00000-0 -47261-3 0  9991,2 49408  53.2168  66.1471 0001183  78.2392 281.8733 15.08829432135150,6917.913,95.438,540.596,538.959,0.0
49408.0,STARLINK-3151,PAYLOAD,2024-04-24 02:53:56,15.08837853,0.0001916,53.218,62.2802,72.1632,287.9569,-2.2851e-05,-6.52e-06,0.0,0 STARLINK-3151,1 49408U 21104A   24115.12078802 -.00000652  00000-0 -22851-4 0  9991,2 49408  53.2180  62.2802 0001916  72.1632 287.9569 15.08837853136389,6917.887,95.438,541.077,538.426,0.0
49408.0,STARLINK-3151,PAYLOAD,2024-04-25 02:44:43,15.08844548,0.0001363,53.218,57.8212,96.0237,264.091,0.00061768,9.557e-05,0.0,0 STARLINK-3151,1 49408U 21104A   24116.11439448  .00009557  00000-0  61768-3 0  9998,2 49408  53.2180  57.8212 0001363  96.0237 264.0910 15.08844548135436,6917.866,95.437,540.674,538.789,0.0
49408.0,STARLINK-3151,PAYLOAD,2024-04-26 01:00:07,15.0885682,0.000146,53.2185,53.6558,98.3426,261.7732,0.00057843,8.934e-05,0.0,0 STARLINK-3151,1 49408U 21104A   24117.04174901  .00008934  00000-0  57843-3 0  9998,2 49408  53.2185  53.6558 0001460  98.3426 261.7732 15.08856820136670,6917.829,95.436,540.704,538.684,0.0
49408.0,STARLINK-3151,PAYLOAD,2024-04-26 12:07:48,15.08863904,0.0001605,53.2175,51.5687,46.103,314.0095,0.00076586,0.0001193,0.0,0 STARLINK-3151,1 49408U 21104A   24117.50542379  .00011930  00000-0  76586-3 0  9992,2 49408  53.2175  51.5687 0001605  46.1030 314.0095 15.08863904135643,6917.807,95.436,540.783,538.562,0.0
49408.0,STARLINK-3151,PAYLOAD,2024-04-27 02:26:17,15.08850917,0.0001425,53.2179,48.8975,76.0104,284.1047,0.00022319,3.267e-05,0.0,0 STARLINK-3151,1 49408U 21104A   24118.10158647  .00003267  00000-0  22319-3 0  9999,2 49408  53.2179  48.8975 0001425  76.0104 284.1047 15.08850917136836,6917.847,95.437,540.698,538.726,0.0
49408.0,STARLINK-3151,PAYLOAD,2024-04-27 11:58:35,15.08847154,0.0001434,53.2176,47.1152,84.1374,275.9781,0.0001507,2.112e-05,0.0,0 STARLINK-3151,1 49408U 21104A   24118.49902628  .00002112  00000-0  15070-3 0  9991,2 49408  53.2176  47.1152 0001434  84.1374 275.9781 15.08847154135797,6917.859,95.437,540.716,538.732,0.0
49408.0,STARLINK-3151,PAYLOAD,2024-04-27 19:55:31,15.08842912,0.000129,53.2172,45.6291,90.5275,269.5865,-1.0593e-05,-4.56e-06,0.0,0 STARLINK-3151,1 49408U 21104A   24118.83022523 -.00000456  00000-0 -10593-4 0  9993,2 49408  53.2172  45.6291 0001290  90.5275 269.5865 15.08842912136948,6917.871,95.437,540.629,538.844,0.0
49408.0,STARLINK-3151,PAYLOAD,2024-04-28 03:52:26,15.08860091,0.0001916,53.2198,44.1455,107.7986,252.3215,0.00044429,6.794e-05,0.0,0 STARLINK-3151,1 49408U 21104A   24119.16141985  .00006794  00000-0  44429-3 0  9997,2 49408  53.2198  44.1455 0001916 107.7986 252.3215 15.08860091136999,6917.819,95.436,541.009,538.359,0.0
49408.0,STARLINK-3151,PAYLOAD,2024-04-28 11:49:22,15.08845049,0.0001698,53.2178,42.6554,84.0247,276.0939,0.00011363,1.521e-05,0.0,0 STARLINK-3151,1 49408U 21104A   24119.49262315  .00001521  00000-0  11363-3 0  9998,2 49408  53.2178  42.6554 0001698  84.0247 276.0939 15.08845049137043,6917.865,95.437,540.905,538.555,0.0
49408.0,STARLINK-3151,PAYLOAD,2024-04-28 22:57:05,15.08818378,0.0001643,53.2179,40.5763,90.6507,269.4673,-0.00044088,-7.294e-05,0.0,0 STARLINK-3151,1 49408U 21104A   24119.95631469 -.00007294  00000-0 -44088-3 0  9994,2 49408  53.2179  40.5763 0001643  90.6507 269.4673 15.08818378136017,6917.946,95.439,540.948,538.675,0.0
49408.0,STARLINK-3151,PAYLOAD,2024-04-29 03:43:15,15.08823849,0.0001698,53.219,39.6823,82.1319,277.9866,-0.00021636,-3.728e-05,0.0,0 STARLINK-3151,1 49408U 21104A   24120.15503666 -.00003728  00000-0 -21636-3 0  9997,2 49408  53.2190  39.6823 0001698  82.1319 277.9866 15.08823849137145,6917.93,95.439,540.969,538.62,0.0
49408.0,STARLINK-3151,PAYLOAD,2024-04-29 11:40:10,15.0882791,0.0001617,53.2185,38.1971,86.8837,273.234,-3.3546e-05,-8.22e-06,0.0,0 STARLINK-3151,1 49408U 21104A   24120.48623732 -.00000822  00000-0 -33546-4 0  9996,2 49408  53.2185  38.1971 0001617  86.8837 273.2340 15.08827910136096,6917.917,95.438,540.901,538.664,0.0
49408.0,STARLINK-3151,PAYLOAD,2024-04-29 22:47:52,15.0883869,0.0001445,53.2176,36.1134,86.7512,273.3645,0.00031385,4.71e-05,0.0,0 STARLINK-3151,1 49408U 21104A   24120.94991790  .00004710  00000-0  31385-3 0  9995,2 49408  53.2176  36.1134 0001445  86.7512 273.3645 15.08838690136167,6917.884,95.438,540.749,538.75,0.0
49408.0,STARLINK-3151,PAYLOAD,2024-04-30 01:58:39,15.08845935,0.0001392,53.2171,35.519,87.7276,272.3876,0.00088708,0.0001386,0.0,0 STARLINK-3151,1 49408U 21104A   24121.08239889  .00013860  00000-0  88708-3 0  9992,2 49408  53.2171  35.5190 0001392  87.7276 272.3876 15.08845935137285,6917.862,95.437,540.69,538.764,0.0
49408.0,STARLINK-3151,PAYLOAD,2024-04-30 11:30:58,15.08842325,0.0001553,53.2176,33.7351,79.2829,280.8338,0.00037907,5.75e-05,0.0,0 STARLINK-3151,1 49408U 21104A   24121.47983909  .00005750  00000-0  37907-3 0  9998,2 49408  53.2176  33.7351 0001553  79.2829 280.8338 15.08842325137342,6917.873,95.437,540.813,538.664,0.0
49408.0,STARLINK-3151,PAYLOAD,2024-04-30 22:38:40,15.08839036,0.0001509,53.217,31.6524,86.9171,273.1994,0.0003821,5.798e-05,0.0,0 STARLINK-3151,1 49408U 21104A   24121.94352151  .00005798  00000-0  38210-3 0  9999,2 49408  53.2170  31.6524 0001509  86.9171 273.1994 15.08839036136315,6917.883,95.438,540.792,538.704,0.0
49408.0,STARLINK-3151,PAYLOAD,2024-05-01 11:21:45,15.08843061,0.0001488,53.2177,29.2723,87.7363,272.3799,0.00024323,3.585e-05,0.0,0 STARLINK-3151,1 49408U 21104A   24122.47344112  .00003585  00000-0  24323-3 0  9998,2 49408  53.2177  29.2723 0001488  87.7363 272.3799 15.08843061137491,6917.871,95.437,540.765,538.707,0.0
49408.0,STARLINK-3151,PAYLOAD,2024-05-02 00:04:50,15.0883723,0.0001225,53.2188,26.893,104.2039,255.909,0.00054709,8.429e-05,0.0,0 STARLINK-3151,1 49408U 21104A   24123.00336428  .00008429  00000-0  54709-3 0  9992,2 49408  53.2188  26.8930 0001225 104.2039 255.9090 15.08837230137571,6917.889,95.438,540.601,538.906,0.0
49408.0,STARLINK-3151,PAYLOAD,2024-05-03 03:06:22,15.08857464,0.0001316,53.2172,21.8377,90.6956,269.4187,0.0003654,5.535e-05,0.0,0 STARLINK-3151,1 49408U 21104A   24124.12943193  .00005535  00000-0  36540-3 0  9997,2 49408  53.2172  21.8377 0001316  90.6956 269.4187 15.08857464137748,6917.827,95.436,540.602,538.782,0.0
49408.0,STARLINK-3151,PAYLOAD,2024-05-03 20:35:37,15.08852572,0.0001572,53.2163,18.5656,101.8252,258.2917,0.00017916,2.565e-05,0.0,0 STARLINK-3151,1 49408U 21104A   24124.85807173  .00002565  00000-0  17916-3 0  9990,2 49408  53.2163  18.5656 0001572 101.8252 258.2917 15.08852572137853,6917.842,95.437,540.794,538.619,0.0
49408.0,STARLINK-3151,PAYLOAD,2024-05-03 22:11:00,15.08852324,0.0001413,53.2165,18.2679,95.9623,264.153,0.00016401,2.324e-05,0.0,0 STARLINK-3151,1 49408U 21104A   24124.92431193  .00002324  00000-0  16401-3 0  9994,2 49408  53.2165  18.2679 0001413  95.9623 264.1530 15.08852324136767,6917.843,95.437,540.685,538.73,0.0
49408.0,STARLINK-3151,PAYLOAD,2024-05-04 09:18:42,15.08836066,0.0001357,53.2168,16.1901,78.3852,281.7293,-0.00014204,-2.548e-05,0.0,0 STARLINK-3151,1 49408U 21104A   24125.38799575 -.00002548  00000-0 -14204-3 0  9995,2 49408  53.2168  16.1901 0001357  78.3852 281.7293 15.08836066137937,6917.892,95.438,540.696,538.819,0.0
49408.0,STARLINK-3151,PAYLOAD,2024-05-05 02:47:57,15.08837535,0.0001386,53.2173,12.9199,91.8937,268.2214,-0.00011107,-2.055e-05,0.0,0 STARLINK-3151,1 49408U 21104A   24126.11663856 -.00002055  00000-0 -11107-3 0  9991,2 49408  53.2173  12.9199 0001386  91.8937 268.2214 15.08837535136947,6917.888,95.438,540.712,538.794,0.0
49408.0,STARLINK-3151,PAYLOAD,2024-05-05 20:17:12,15.08832811,0.0001587,53.2188,9.6507,95.688,264.4293,4.9374e-05,4.98e-06,0.0,0 STARLINK-3151,1 49408U 21104A   24126.84528596  .00000498  00000-0  49374-4 0  9997,2 49408  53.2188   9.6507 0001587  95.6880 264.4293 15.08832811138153,6917.902,95.438,540.865,538.669,0.0
49408.0,STARLINK-3151,PAYLOAD,2024-05-05 21:52:35,15.08835332,0.0001475,53.219,9.3523,90.7158,269.4003,8.7653e-05,1.107e-05,0.0,0 STARLINK-3151,1 49408U 21104A   24126.91152725  .00001107  00000-0  87653-4 0  9992,2 49408  53.2190   9.3523 0001475  90.7158 269.4003 15.08835332137065,6917.895,95.438,540.78,538.739,0.0
49408.0,STARLINK-3151,PAYLOAD,2024-05-06 09:00:17,15.08848652,0.000138,53.2175,7.2699,87.6057,272.5093,0.00028554,4.26e-05,0.0,0 STARLINK-3151,1 49408U 21104A   24127.37519999  .00004260  00000-0  28554-3 0  9990,2 49408  53.2175   7.2699 0001380  87.6057 272.5093 15.08848652138230,6917.854,95.437,540.674,538.764,0.0
49408.0,STARLINK-3151,PAYLOAD,2024-05-06 20:07:57,15.08870716,0.0001438,53.2171,5.188,81.3358,278.7797,4.6187e-05,4.48e-06,0.0,0 STARLINK-3151,1 49408U 21104A   24127.83886510  .00000448  00000-0  46187-4 0  9994,2 49408  53.2171   5.1880 0001438  81.3358 278.7797 15.08870716138307,6917.787,95.436,540.646,538.657,0.0
49408.0,STARLINK-3151,PAYLOAD,2024-05-06 21:43:21,15.08863477,0.0001282,53.217,4.8908,89.4438,270.6701,0.0005957,9.211e-05,0.0,0 STARLINK-3151,1 49408U 21104A   24127.90511419  .00009211  00000-0  59570-3 0  9991,2 49408  53.2170   4.8908 0001282  89.4438 270.6701 15.08863477137219,6917.809,95.436,540.56,538.787,0.0
49408.0,STARLINK-3151,PAYLOAD,2024-05-07 08:51:02,15.08895109,0.0001279,53.2173,2.8103,87.8225,272.2914,0.001196,0.00018826,0.0,0 STARLINK-3151,1 49408U 21104A   24128.36877923  .00018826  00000-0  11960-2 0  9999,2 49408  53.2173   2.8103 0001279  87.8225 272.2914 15.08895109137287,6917.712,95.434,540.462,538.692,0.0
